0 ORBCOMM FM 6
1 25118U 97084G   26161.53867818  .00001150  00000-0  34886-3 0  9996
2 25118  45.0139  84.7178 0001750 310.6270 223.5739 14.47546354493424
0 ORBCOMM FM 4
1 25159U 98007C   26161.63606845  .00000775  00000-0  31078-3 0  9991
2 25159 107.9626 155.9362 0041129 336.0523  23.8704 14.35729301475651
0 ORBCOMM FM 19
1 25415U 98046C   26161.61922300  .00000662  00000-0  25569-3 0  9997
2 25415  44.9942 274.7815 0004415 255.3785 124.3430 14.39485224455838
0 ORBCOMM FM 20
1 25416U 98046D   26161.62166436  .00000553  00000-0  22759-3 0  9996
2 25416  44.9948 282.6198 0001887 228.2835 131.7852 14.38057937455848
0 ORBCOMM FM 27
1 25481U 98053G   26161.52332663  .00000801  00000-0  30230-3 0  9991
2 25481  45.0065   7.0042 0000381 152.0044 208.0825 14.39129048449275
0 ORBCOMM FM 32
1 25982U 99065C   26161.40834504  .00000453  00000-0  19843-3 0  9999
2 25982  45.0138 205.3274 0004924 359.8512   0.2334 14.37122683386112
0 ORBCOMM FM 109
1 40086U 14040A   26161.59197394  .00000380  00000-0  11675-3 0  9994
2 40086  47.0023 122.6680 0001740 228.2081 131.8656 14.58837735633380
0 ORBCOMM FM 114
1 41179U 15081A   26161.33530056  .00000390  00000-0  11875-3 0  9995
2 41179  47.0059  34.3990 0002055 179.4060 180.6828 14.58850721556758
0 ORBCOMM FM 110
1 41182U 15081D   26160.98135969  .00000629  00000-0  16934-3 0  9999
2 41182  47.0029  35.5134 0002777  34.0124 326.0939 14.58869109556579
0 ORBCOMM FM 118
1 41183U 15081E   26159.37192238  .00002733  00000-0  61393-3 0  9990
2 41183  47.0109  43.4533 0003135 338.0740  22.0011 14.58872980556441
0 ORBCOMM FM 112
1 41184U 15081F   26161.08878541  .00000540  00000-0  15048-3 0  9990
2 41184  47.0001 303.8133 0003307 186.7885 173.2956 14.58893591557912
0 ORBCOMM FM 113
1 41185U 15081G   26161.13367850  .00000377  00000-0  11609-3 0  9990
2 41185  47.0018 303.9737 0001876 196.8389 163.2434 14.58851189557908
0 ORBCOMM FM 108
1 41187U 15081J   26161.43856351  .00000375  00000-0  11555-3 0  9992
2 41187  47.0038 214.1055 0002595 194.3868 165.6945 14.58863816559097
0 ORBCOMM FM 117
1 41188U 15081K   26160.85616420  .00000388  00000-0  11832-3 0  9991
2 41188  47.0001 215.4948 0003096 194.0139 166.0662 14.58859516559057
0 ORBCOMM FM 116
1 41189U 15081L   26161.11063401  .00000563  00000-0  15516-3 0  9995
2 41189  47.0034 304.0813 0000962  15.3603 344.7311 14.58872358557907
